{"type": "FeatureCollection", "features": [ {"type": "Feature", "properties": {"norad_id": 30121, "name": "FENGYUN 1C DEB", "group": "fengyun-1c-debris", "lat": 77.80043955225095, "lon": -65.75881449012773, "alt_km": 737.8648685159487, "timestamp": "2025-12-21T07:34:34.791193+00:00", "meta": {"OBJECT_NAME": "FENGYUN 1C DEB", "OBJECT_ID": "1999-025SA", "EPOCH": "2025-12-20T20:19:33.868992", "MEAN_MOTION": 14.40088098, "ECCENTRICITY": 0.00307652, "INCLINATION": 102.1638, "RA_OF_ASC_NODE": 19.6289, "ARG_OF_PERICENTER": 144.6132, "MEAN_ANOMALY": 35.8594, "EPHEMERIS_TYPE": 0, "CLASSIFICATION_TYPE": "U", "NORAD_CAT_ID": 30121, "ELEMENT_SET_NO": 999, "REV_AT_EPOCH": 97656, "BSTAR": 0.0012997947, "MEAN_MOTION_DOT": 4.05e-05, "MEAN_MOTION_DDOT": 0}, "tle": {"line1": "1 30121U 99025SA  25354.84691978  .00004050  00000+0  12998-2 0  9992", "line2": "2 30121 102.1638  19.6289 0030765 144.6132  35.8594 14.40088098976566"}}, "geometry": {"type": "Point", "coordinates": [-65.75881449012773, 77.80043955225095]}}, {"type": "Feature", "properties": {"norad_id": 30123, "name": "FENGYUN 1C DEB", "group": "fengyun-1c-debris", "lat": 28.21528071206116, "lon": 117.73834885049006, "alt_km": 807.4662061085355, "timestamp": "2025-12-21T07:34:34.791202+00:00", "meta": {"OBJECT_NAME": "FENGYUN 1C DEB", "OBJECT_ID": "1999-025SC", "EPOCH": "2025-12-20T19:06:12.964896", "MEAN_MOTION": 14.26044542, "ECCENTRICITY": 0.02307708, "INCLINATION": 96.9275, "RA_OF_ASC_NODE": 293.5864, "ARG_OF_PERICENTER": 60.4287, "MEAN_ANOMALY": 301.9682, "EPHEMERIS_TYPE": 0, "CLASSIFICATION_TYPE": "U", "NORAD_CAT_ID": 30123, "ELEMENT_SET_NO": 999, "REV_AT_EPOCH": 97362, "BSTAR": 0.0011215608, "MEAN_MOTION_DOT": 3.515e-05, "MEAN_MOTION_DDOT": 0}, "tle": {"line1": "1 30123U 99025SC  25354.79598339  .00003515  00000+0  11216-2 0  9992", "line2": "2 30123  96.9275 293.5864 0230770  60.4287 301.9682 14.26044542973620"}}, "geometry": {"type": "Point", "coordinates": [117.73834885049006, 28.21528071206116]}}, {"type": "Feature", "properties": {"norad_id": 30124, "name": "FENGYUN 1C DEB", "group": "fengyun-1c-debris", "lat": 68.64984175713025, "lon": 25.076131591292025, "alt_km": 736.7420028545557, "timestamp": "2025-12-21T07:34:34.791212+00:00", "meta": {"OBJECT_NAME": "FENGYUN 1C DEB", "OBJECT_ID": "1999-025SD", "EPOCH": "2025-12-20T21:54:53.237952", "MEAN_MOTION": 14.14257584, "ECCENTRICITY": 0.01429144, "INCLINATION": 99.1309, "RA_OF_ASC_NODE": 48.9601, "ARG_OF_PERICENTER": 82.8647, "MEAN_ANOMALY": 99.6499, "EPHEMERIS_TYPE": 0, "CLASSIFICATION_TYPE": "U", "NORAD_CAT_ID": 30124, "ELEMENT_SET_NO": 999, "REV_AT_EPOCH": 97030, "BSTAR": 0.00060980393, "MEAN_MOTION_DOT": 1.239e-05, "MEAN_MOTION_DDOT": 0}, "tle": {"line1": "1 30124U 99025SD  25354.91311618  .00001239  00000+0  60980-3 0  9994", "line2": "2 30124  99.1309  48.9601 0142914  82.8647  99.6499 14.14257584970303"}}, "geometry": {"type": "Point", "coordinates": [25.076131591292025, 68.64984175713025]}}, {"type": "Feature", "properties": {"norad_id": 30125, "name": "FENGYUN 1C DEB", "group": "fengyun-1c-debris", "lat": 53.12058789039556, "lon": -74.13826940998743, "alt_km": 1050.0994856316875, "timestamp": "2025-12-21T07:34:34.791221+00:00", "meta": {"OBJECT_NAME": "FENGYUN 1C DEB", "OBJECT_ID": "1999-025SE", "EPOCH": "2025-12-20T05:48:20.926368", "MEAN_MOTION": 14.22686214, "ECCENTRICITY": 0.0341844, "INCLINATION": 98.724, "RA_OF_ASC_NODE": 92.9866, "ARG_OF_PERICENTER": 322.3856, "MEAN_ANOMALY": 66.2001, "EPHEMERIS_TYPE": 0, "CLASSIFICATION_TYPE": "U", "NORAD_CAT_ID": 30125, "ELEMENT_SET_NO": 999, "REV_AT_EPOCH": 97028, "BSTAR": 0.00041849, "MEAN_MOTION_DOT": 1.652e-05, "MEAN_MOTION_DDOT": 0}, "tle": {"line1": "1 30125U 99025SE  25354.24190887  .00001652  00000+0  41849-3 0  9996", "line2": "2 30125  98.7240  92.9866 0341844 322.3856  66.2001 14.22686214970283"}}, "geometry": {"type": "Point", "coordinates": [-74.13826940998743, 53.12058789039556]}}, {"type": "Feature", "properties": {"norad_id": 30127, "name": "FENGYUN 1C DEB", "group": "fengyun-1c-debris", "lat": -71.2071415998563, "lon": -123.4677142820242, "alt_km": 808.05679110254, "timestamp": "2025-12-21T07:34:34.791230+00:00", "meta": {"OBJECT_NAME": "FENGYUN 1C DEB", "OBJECT_ID": "1999-025SG", "EPOCH": "2025-12-19T20:50:55.879584", "MEAN_MOTION": 14.38086406, "ECCENTRICITY": 0.00857664, "INCLINATION": 98.2057, "RA_OF_ASC_NODE": 210.0597, "ARG_OF_PERICENTER": 57.7306, "MEAN_ANOMALY": 303.2156, "EPHEMERIS_TYPE": 0, "CLASSIFICATION_TYPE": "U", "NORAD_CAT_ID": 30127, "ELEMENT_SET_NO": 999, "REV_AT_EPOCH": 97338, "BSTAR": 0.0015799385, "MEAN_MOTION_DOT": 4.956e-05, "MEAN_MOTION_DDOT": 0}, "tle": {"line1": "1 30127U 99025SG  25353.86870231  .00004956  00000+0  15799-2 0  9997", "line2": "2 30127  98.2057 210.0597 0085766  57.7306 303.2156 14.38086406973380"}}, "geometry": {"type": "Point", "coordinates": [-123.4677142820242, -71.2071415998563]}}, {"type": "Feature", "properties": {"norad_id": 30128, "name": "FENGYUN 1C DEB", "group": "fengyun-1c-debris", "lat": 23.56726692173223, "lon": 175.61865055277005, "alt_km": 696.5145513860452, "timestamp": "2025-12-21T07:34:34.791239+00:00", "meta": {"OBJECT_NAME": "FENGYUN 1C DEB", "OBJECT_ID": "1999-025SH", "EPOCH": "2025-12-19T23:34:05.675232", "MEAN_MOTION": 14.46224348, "ECCENTRICITY": 0.0107521, "INCLINATION": 96.9793, "RA_OF_ASC_NODE": 351.4564, "ARG_OF_PERICENTER": 102.1722, "MEAN_ANOMALY": 313.4513, "EPHEMERIS_TYPE": 0, "CLASSIFICATION_TYPE": "U", "NORAD_CAT_ID": 30128, "ELEMENT_SET_NO": 999, "REV_AT_EPOCH": 97416, "BSTAR": 0.0015422, "MEAN_MOTION_DOT": 5.899e-05, "MEAN_MOTION_DDOT": 0}, "tle": {"line1": "1 30128U 99025SH  25353.98201013  .00005899  00000+0  15422-2 0  9997", "line2": "2 30128  96.9793 351.4564 0107521 102.1722 313.4513 14.46224348974163"}}, "geometry": {"type": "Point", "coordinates": [175.61865055277005, 23.56726692173223]}}, {"type": "Feature", "properties": {"norad_id": 30129, "name": "FENGYUN 1C DEB", "group": "fengyun-1c-debris", "lat": 0.7906311219561675, "lon": 116.26189513183373, "alt_km": 937.8249649199706, "timestamp": "2025-12-21T07:34:34.791247+00:00", "meta": {"OBJECT_NAME": "FENGYUN 1C DEB", "OBJECT_ID": "1999-025SJ", "EPOCH": "2025-12-20T19:01:24.633408", "MEAN_MOTION": 14.01593499, "ECCENTRICITY": 0.01884567, "INCLINATION": 98.0299, "RA_OF_ASC_NODE": 295.6894, "ARG_OF_PERICENTER": 69.6113, "MEAN_ANOMALY": 349.844, "EPHEMERIS_TYPE": 0, "CLASSIFICATION_TYPE": "U", "NORAD_CAT_ID": 30129, "ELEMENT_SET_NO": 999, "REV_AT_EPOCH": 96591, "BSTAR": 0.00048147307, "MEAN_MOTION_DOT": 8.16e-06, "MEAN_MOTION_DDOT": 0}, "tle": {"line1": "1 30129U 99025SJ  25354.79264622  .00000816  00000+0  48147-3 0  9998", "line2": "2 30129  98.0299 295.6894 0188456  69.6113 349.8440 14.01593499965912"}}, "geometry": {"type": "Point", "coordinates": [116.26189513183373, 0.7906311219561675]}}, {"type": "Feature", "properties": {"norad_id": 30131, "name": "FENGYUN 1C DEB", "group": "fengyun-1c-debris", "lat": 45.66304419403042, "lon": -83.20022509066821, "alt_km": 757.7513382116922, "timestamp": "2025-12-21T07:34:34.791257+00:00", "meta": {"OBJECT_NAME": "FENGYUN 1C DEB", "OBJECT_ID": "1999-025SL", "EPOCH": "2025-12-20T18:08:31.460352", "MEAN_MOTION": 14.21265949, "ECCENTRICITY": 0.00823792, "INCLINATION": 99.0752, "RA_OF_ASC_NODE": 86.8103, "ARG_OF_PERICENTER": 136.3852, "MEAN_ANOMALY": 14.6941, "EPHEMERIS_TYPE": 0, "CLASSIFICATION_TYPE": "U", "NORAD_CAT_ID": 30131, "ELEMENT_SET_NO": 999, "REV_AT_EPOCH": 96802, "BSTAR": 0.0014963431, "MEAN_MOTION_DOT": 3.329e-05, "MEAN_MOTION_DDOT": 0}, "tle": {"line1": "1 30131U 99025SL  25354.75591968  .00003329  00000+0  14963-2 0  9993", "line2": "2 30131  99.0752  86.8103 0082379 136.3852  14.6941 14.21265949968028"}}, "geometry": {"type": "Point", "coordinates": [-83.20022509066821, 45.66304419403042]}}, {"type": "Feature", "properties": {"norad_id": 30132, "name": "FENGYUN 1C DEB", "group": "fengyun-1c-debris", "lat": 30.269719760586316, "lon": -56.43574284381815, "alt_km": 833.0990755048315, "timestamp": "2025-12-21T07:34:34.791266+00:00", "meta": {"OBJECT_NAME": "FENGYUN 1C DEB", "OBJECT_ID": "1999-025SM", "EPOCH": "2025-12-19T09:32:58.134048", "MEAN_MOTION": 13.94857644, "ECCENTRICITY": 0.0105674, "INCLINATION": 99.5782, "RA_OF_ASC_NODE": 307.2303, "ARG_OF_PERICENTER": 31.9911, "MEAN_ANOMALY": 93.7784, "EPHEMERIS_TYPE": 0, "CLASSIFICATION_TYPE": "U", "NORAD_CAT_ID": 30132, "ELEMENT_SET_NO": 999, "REV_AT_EPOCH": 96182, "BSTAR": 0.00045645, "MEAN_MOTION_DOT": 5.94e-06, "MEAN_MOTION_DDOT": 0}, "tle": {"line1": "1 30132U 99025SM  25353.39789507  .00000594  00000+0  45645-3 0  9994", "line2": "2 30132  99.5782 307.2303 0105674  31.9911  93.7784 13.94857644961821"}}, "geometry": {"type": "Point", "coordinates": [-56.43574284381815, 30.269719760586316]}}, {"type": "Feature", "properties": {"norad_id": 30133, "name": "FENGYUN 1C DEB", "group": "fengyun-1c-debris", "lat": -76.78290926273202, "lon": -160.11081729770757, "alt_km": 833.07901466772, "timestamp": "2025-12-21T07:34:34.791294+00:00", "meta": {"OBJECT_NAME": "FENGYUN 1C DEB", "OBJECT_ID": "1999-025SN", "EPOCH": "2025-12-20T16:53:08.155104", "MEAN_MOTION": 14.06704998, "ECCENTRICITY": 0.00859108, "INCLINATION": 98.3238, "RA_OF_ASC_NODE": 160.7649, "ARG_OF_PERICENTER": 237.8532, "MEAN_ANOMALY": 183.6983, "EPHEMERIS_TYPE": 0, "CLASSIFICATION_TYPE": "U", "NORAD_CAT_ID": 30133, "ELEMENT_SET_NO": 999, "REV_AT_EPOCH": 96490, "BSTAR": 0.0011119792, "MEAN_MOTION_DOT": 1.87e-05, "MEAN_MOTION_DDOT": 0}, "tle": {"line1": "1 30133U 99025SN  25354.70356661  .00001870  00000+0  11120-2 0  9990", "line2": "2 30133  98.3238 160.7649 0085910 237.8532 183.6983 14.06704998964905"}}, "geometry": {"type": "Point", "coordinates": [-160.11081729770757, -76.78290926273202]}}]}